start=new Date('2022-08-27T00:00:00.000Z').valueOf();
sats=[{"MEAN_MOTION_DDOT":"0.0000000000000","EPHEMERIS_TYPE":"0","RA_OF_ASC_NODE":"86.4243","GP_ID":"211078110","TLE_LINE2":"2 47656  53.0547  86.4243 0001696  81.8976 278.2205 15.06398400 85704","INCLINATION":"53.0547","OBJECT_NAME":"STARLINK-2040","MEAN_MOTION_DOT":"0.00001122","SEMIMAJOR_AXIS":"6925.353","NORAD_CAT_ID":"47656","BSTAR":"0.00009422900000","LAUNCH_DATE":"2021-02-16","ARG_OF_PERICENTER":"81.8976","COUNTRY_CODE":"US","TLE_LINE1":"1 47656U 21012AN  22238.85168565  .00001122  00000-0  94229-4 0  9991","RCS_SIZE":"LARGE","REV_AT_EPOCH":"8570","PERIAPSIS":"546.044","OBJECT_ID":"2021-012AN","CENTER_NAME":"EARTH","APOAPSIS":"548.393","ECCENTRICITY":"0.00016960","OBJECT_TYPE":"PAYLOAD","MEAN_MOTION":"15.06398400","REF_FRAME":"TEME","CLASSIFICATION_TYPE":"U","EPOCH":"2022-08-26T20:26:25.640160","TIME_SYSTEM":"UTC","PERIOD":"95.592","ELEMENT_SET_NO":"999","FILE":"3548620","SITE":"AFETR","DECAY_DATE":null,"MEAN_ANOMALY":"278.2205","MEAN_ELEMENT_THEORY":"SGP4"},{"TIME_SYSTEM":"UTC","PERIOD":"95.592","ELEMENT_SET_NO":"999","FILE":"3548620","SITE":"AFETR","DECAY_DATE":null,"MEAN_ANOMALY":"286.0885","MEAN_ELEMENT_THEORY":"SGP4","CENTER_NAME":"EARTH","APOAPSIS":"548.373","OBJECT_TYPE":"PAYLOAD","ECCENTRICITY":"0.00016610","MEAN_MOTION":"15.06397176","REF_FRAME":"TEME","CLASSIFICATION_TYPE":"U","EPOCH":"2022-08-26T22:09:55.800000","BSTAR":"0.00014650000000","LAUNCH_DATE":"2021-02-16","ARG_OF_PERICENTER":"74.0286","COUNTRY_CODE":"US","TLE_LINE1":"1 47657U 21012AP  22238.92356250  .00001901  00000-0  14650-3 0  9994","RCS_SIZE":"LARGE","PERIAPSIS":"546.072","REV_AT_EPOCH":"8543","OBJECT_ID":"2021-012AP","MEAN_MOTION_DDOT":"0.0000000000000","EPHEMERIS_TYPE":"0","RA_OF_ASC_NODE":"106.1006","GP_ID":"211076365","TLE_LINE2":"2 47657  53.0540 106.1006 0001661  74.0286 286.0885 15.06397176 85435","INCLINATION":"53.0540","OBJECT_NAME":"STARLINK-2041","MEAN_MOTION_DOT":"0.00001901","SEMIMAJOR_AXIS":"6925.357","NORAD_CAT_ID":"47657"},{"REF_FRAME":"TEME","MEAN_MOTION":"15.06404926","CLASSIFICATION_TYPE":"U","EPOCH":"2022-08-26T18:48:14.006880","CENTER_NAME":"EARTH","APOAPSIS":"548.366","ECCENTRICITY":"0.00016860","OBJECT_TYPE":"PAYLOAD","MEAN_ANOMALY":"274.5403","FILE":"3548620","SITE":"AFETR","DECAY_DATE":null,"MEAN_ELEMENT_THEORY":"SGP4","TIME_SYSTEM":"UTC","PERIOD":"95.592","ELEMENT_SET_NO":"999","OBJECT_NAME":"STARLINK-2042","INCLINATION":"53.0553","SEMIMAJOR_AXIS":"6925.333","MEAN_MOTION_DOT":"0.00001741","NORAD_CAT_ID":"47658","EPHEMERIS_TYPE":"0","RA_OF_ASC_NODE":"106.7329","MEAN_MOTION_DDOT":"0.0000000000000","GP_ID":"211076615","TLE_LINE2":"2 47658  53.0553 106.7329 0001686  85.5779 274.5403 15.06404926 85435","RCS_SIZE":"LARGE","PERIAPSIS":"546.031","OBJECT_ID":"2021-012AQ","REV_AT_EPOCH":"8543","LAUNCH_DATE":"2021-02-16","BSTAR":"0.00013571000000","ARG_OF_PERICENTER":"85.5779","TLE_LINE1":"1 47658U 21012AQ  22238.78349545  .00001741  00000-0  13571-3 0  9991","COUNTRY_CODE":"US"},{"ARG_OF_PERICENTER":"89.7449","COUNTRY_CODE":"US","TLE_LINE1":"1 47659U 21012AR  22238.61027020  .00000253  00000-0  35906-4 0  9999","BSTAR":"0.00003590600000","LAUNCH_DATE":"2021-02-16","RCS_SIZE":"LARGE","PERIAPSIS":"546.356","REV_AT_EPOCH":"8704","OBJECT_ID":"2021-012AR","TLE_LINE2":"2 47659  53.0554 347.5129 0001284  89.7449 270.3687 15.06389627 87041","MEAN_MOTION_DDOT":"0.0000000000000","EPHEMERIS_TYPE":"0","RA_OF_ASC_NODE":"347.5129","GP_ID":"211077867","NORAD_CAT_ID":"47659","INCLINATION":"53.0554","OBJECT_NAME":"STARLINK-2043","MEAN_MOTION_DOT":"0.00000253","SEMIMAJOR_AXIS":"6925.380","PERIOD":"95.593","ELEMENT_SET_NO":"999","TIME_SYSTEM":"UTC","MEAN_ELEMENT_THEORY":"SGP4","SITE":"AFETR","FILE":"3548620","DECAY_DATE":null,"MEAN_ANOMALY":"270.3687","OBJECT_TYPE":"PAYLOAD","ECCENTRICITY":"0.00012840","CENTER_NAME":"EARTH","APOAPSIS":"548.135","CLASSIFICATION_TYPE":"U","EPOCH":"2022-08-26T14:38:47.345280","REF_FRAME":"TEME","MEAN_MOTION":"15.06389627"},{"CENTER_NAME":"EARTH","APOAPSIS":"547.965","OBJECT_TYPE":"PAYLOAD","ECCENTRICITY":"0.00010790","MEAN_MOTION":"15.06398596","REF_FRAME":"TEME","CLASSIFICATION_TYPE":"U","EPOCH":"2022-08-26T16:42:17.049888","TIME_SYSTEM":"UTC","PERIOD":"95.592","ELEMENT_SET_NO":"999","DECAY_DATE":null,"FILE":"3548620","SITE":"AFETR","MEAN_ANOMALY":"277.7004","MEAN_ELEMENT_THEORY":"SGP4","MEAN_MOTION_DDOT":"0.0000000000000","RA_OF_ASC_NODE":"337.7545","EPHEMERIS_TYPE":"0","GP_ID":"211077610","TLE_LINE2":"2 47660  53.0574 337.7545 0001079  82.4107 277.7004 15.06398596 87196","INCLINATION":"53.0574","OBJECT_NAME":"STARLINK-2044","MEAN_MOTION_DOT":"0.00000486","SEMIMAJOR_AXIS":"6925.353","NORAD_CAT_ID":"47660","BSTAR":"0.00005149800000","LAUNCH_DATE":"2021-02-16","ARG_OF_PERICENTER":"82.4107","COUNTRY_CODE":"US","TLE_LINE1":"1 47660U 21012AS  22238.69603067  .00000486  00000-0  51498-4 0  9992","RCS_SIZE":"LARGE","PERIAPSIS":"546.471","OBJECT_ID":"2021-012AS","REV_AT_EPOCH":"8719"},{"CENTER_NAME":"EARTH","APOAPSIS":"548.376","OBJECT_TYPE":"PAYLOAD","ECCENTRICITY":"0.00017050","MEAN_MOTION":"15.06405913","REF_FRAME":"TEME","CLASSIFICATION_TYPE":"U","EPOCH":"2022-08-26T21:08:52.962720","TIME_SYSTEM":"UTC","PERIOD":"95.592","ELEMENT_SET_NO":"999","SITE":"AFETR","FILE":"3548620","DECAY_DATE":null,"MEAN_ANOMALY":"282.2358","MEAN_ELEMENT_THEORY":"SGP4","MEAN_MOTION_DDOT":"0.0000000000000","EPHEMERIS_TYPE":"0","RA_OF_ASC_NODE":"86.2907","GP_ID":"211076866","TLE_LINE2":"2 47661  53.0544  86.2907 0001705  77.8822 282.2358 15.06405913 85698","OBJECT_NAME":"STARLINK-2051","INCLINATION":"53.0544","MEAN_MOTION_DOT":"0.00001133","SEMIMAJOR_AXIS":"6925.330","NORAD_CAT_ID":"47661","BSTAR":"0.00009496000000","LAUNCH_DATE":"2021-02-16","ARG_OF_PERICENTER":"77.8822","COUNTRY_CODE":"US","TLE_LINE1":"1 47661U 21012AT  22238.88116855  .00001133  00000-0  94960-4 0  9999","RCS_SIZE":"LARGE","OBJECT_ID":"2021-012AT","PERIAPSIS":"546.015","REV_AT_EPOCH":"8569"},{"TLE_LINE2":"2 47662  53.0555  86.9778 0001631  78.8761 281.2411 15.06395278 85696","RA_OF_ASC_NODE":"86.9778","EPHEMERIS_TYPE":"0","MEAN_MOTION_DDOT":"0.0000000000000","GP_ID":"211077116","NORAD_CAT_ID":"47662","INCLINATION":"53.0555","OBJECT_NAME":"STARLINK-2052","SEMIMAJOR_AXIS":"6925.363","MEAN_MOTION_DOT":"0.00000086","ARG_OF_PERICENTER":"78.8761","COUNTRY_CODE":"US","TLE_LINE1":"1 47662U 21012AU  22238.72910901  .00000086  00000-0  24702-4 0  9990","LAUNCH_DATE":"2021-02-16","BSTAR":"0.00002470200000","RCS_SIZE":"LARGE","PERIAPSIS":"546.099","REV_AT_EPOCH":"8569","OBJECT_ID":"2021-012AU","OBJECT_TYPE":"PAYLOAD","ECCENTRICITY":"0.00016310","CENTER_NAME":"EARTH","APOAPSIS":"548.358","CLASSIFICATION_TYPE":"U","EPOCH":"2022-08-26T17:29:55.018464","REF_FRAME":"TEME","MEAN_MOTION":"15.06395278","PERIOD":"95.592","ELEMENT_SET_NO":"999","TIME_SYSTEM":"UTC","MEAN_ELEMENT_THEORY":"SGP4","MEAN_ANOMALY":"281.2411","DECAY_DATE":null,"FILE":"3548620","SITE":"AFETR"},{"PERIOD":"95.592","ELEMENT_SET_NO":"999","TIME_SYSTEM":"UTC","MEAN_ELEMENT_THEORY":"SGP4","MEAN_ANOMALY":"278.3189","FILE":"3548479","SITE":"AFETR","DECAY_DATE":null,"OBJECT_TYPE":"PAYLOAD","ECCENTRICITY":"0.00011930","CENTER_NAME":"EARTH","APOAPSIS":"548.046","CLASSIFICATION_TYPE":"U","EPOCH":"2022-08-26T19:01:34.433760","MEAN_MOTION":"15.06397893","REF_FRAME":"TEME","ARG_OF_PERICENTER":"81.7935","COUNTRY_CODE":"US","TLE_LINE1":"1 47663U 21012AV  22238.79275965 -.00000418  00000-0 -91422-5 0  9997","LAUNCH_DATE":"2021-02-16","BSTAR":"-0.00000914220000","RCS_SIZE":"LARGE","PERIAPSIS":"546.394","OBJECT_ID":"2021-012AV","REV_AT_EPOCH":"8629","TLE_LINE2":"2 47663  53.0565   6.9897 0001193  81.7935 278.3189 15.06397893 86292","EPHEMERIS_TYPE":"0","RA_OF_ASC_NODE":"6.9897","MEAN_MOTION_DDOT":"0.0000000000000","GP_ID":"211052431","NORAD_CAT_ID":"47663","OBJECT_NAME":"STARLINK-2053","INCLINATION":"53.0565","SEMIMAJOR_AXIS":"6925.355","MEAN_MOTION_DOT":"-0.00000418"},{"MEAN_MOTION_DOT":"-0.00000282","SEMIMAJOR_AXIS":"6925.375","INCLINATION":"53.0554","OBJECT_NAME":"STARLINK-2054","NORAD_CAT_ID":"47664","GP_ID":"211078111","MEAN_MOTION_DDOT":"0.0000000000000","EPHEMERIS_TYPE":"0","RA_OF_ASC_NODE":"86.3785","TLE_LINE2":"2 47664  53.0554  86.3785 0001370  84.4533 275.6612 15.06391479 85711","OBJECT_ID":"2021-012AW","PERIAPSIS":"546.291","REV_AT_EPOCH":"8571","RCS_SIZE":"LARGE","BSTAR":"-0.00000000965200","LAUNCH_DATE":"2021-02-16","COUNTRY_CODE":"US","TLE_LINE1":"1 47664U 21012AW  22238.86274868 -.00000282  00000-0 -96520-8 0  9993","ARG_OF_PERICENTER":"84.4533","MEAN_MOTION":"15.06391479","REF_FRAME":"TEME","EPOCH":"2022-08-26T20:42:21.485952","CLASSIFICATION_TYPE":"U","APOAPSIS":"548.188","CENTER_NAME":"EARTH","ECCENTRICITY":"0.00013700","OBJECT_TYPE":"PAYLOAD","FILE":"3548620","DECAY_DATE":null,"SITE":"AFETR","MEAN_ANOMALY":"275.6612","MEAN_ELEMENT_THEORY":"SGP4","TIME_SYSTEM":"UTC","ELEMENT_SET_NO":"999","PERIOD":"95.593"},{"PERIOD":"95.592","ELEMENT_SET_NO":"999","TIME_SYSTEM":"UTC","MEAN_ELEMENT_THEORY":"SGP4","MEAN_ANOMALY":"261.2702","FILE":"3548620","DECAY_DATE":null,"SITE":"AFETR","ECCENTRICITY":"0.00013330","OBJECT_TYPE":"PAYLOAD","CENTER_NAME":"EARTH","APOAPSIS":"548.121","CLASSIFICATION_TYPE":"U","EPOCH":"2022-08-26T15:27:12.745728","REF_FRAME":"TEME","MEAN_MOTION":"15.06405208","ARG_OF_PERICENTER":"98.8438","COUNTRY_CODE":"US","TLE_LINE1":"1 47665U 21012AX  22238.64389752 -.00000057  00000-0  15035-4 0  9996","LAUNCH_DATE":"2021-02-16","BSTAR":"0.00001503500000","RCS_SIZE":"LARGE","OBJECT_ID":"2021-012AX","PERIAPSIS":"546.274","REV_AT_EPOCH":"8574","TLE_LINE2":"2 47665  53.0558  82.4051 0001333  98.8438 261.2702 15.06405208 85741","RA_OF_ASC_NODE":"82.4051","EPHEMERIS_TYPE":"0","MEAN_MOTION_DDOT":"0.0000000000000","GP_ID":"211076366","NORAD_CAT_ID":"47665","OBJECT_NAME":"STARLINK-2056","INCLINATION":"53.0558","SEMIMAJOR_AXIS":"6925.333","MEAN_MOTION_DOT":"-0.00000057"}];
